0 SPACEBEE-42
1 47455U 21006AU  21306.84070955  .00010914  00000-0  59127-3 0  9996
2 47455  97.4739   5.6481 0010450 352.4075   7.6997 15.14734493 42999
0 KEPLER-13 (LUCKY)
1 47454U 21006AT  21306.54903649  .00004276  00000-0  24264-3 0  9995
2 47454  97.4722   5.1019 0010474 348.2597  11.8388 15.13440871 42938
0 LEMUR-2 SAOIRSEDH5GUO
1 47453U 21006AS  21305.43815851  .00006392  00000-0  35938-3 0  9999
2 47453  97.4820   4.3376 0010021   0.3107 359.8129 15.13584572 42760
0 FLOCK 4S 22
1 47452U 21006AR  21306.34998401  .00002643  00000-0  15197-3 0  9992
2 47452  97.4782   5.1353 0010886 349.9482  10.1530 15.13301253 42909
0 SPACEBEE-41
1 47451U 21006AQ  21305.11228346  .00011626  00000-0  62875-3 0  9995
2 47451  97.4737   3.9586 0010736 358.1616   1.9575 15.14776672 42737
0 LEMUR 2 NEVA
1 47450U 21006AP  21306.57512326  .00006884  00000-0  38387-3 0  9990
2 47450  97.4789   5.4597 0011101 353.2614   6.8467 15.13839506 42945
0 SPACEBEE-40
1 47449U 21006AN  21306.42819289  .00012273  00000-0  66240-3 0  9998
2 47449  97.4732   5.2453 0010724 353.8543   6.2556 15.14834586 42933
0 CUBEL
1 47448U 21006AM  21306.83194193  .00001667  00000-0  97920-4 0  9997
2 47448  97.4813   5.7264 0012017 350.7005   9.4001 15.13018487 42970
0 SPACEBEE-48
1 47447U 21006AL  21305.41756872  .00012147  00000-0  65186-3 0  9990
2 47447  97.4732   4.2935 0010719 357.4573   2.6603 15.15041570 42782
0 KEPLER-12 (BOBA)
1 47446U 21006AK  21306.59238616  .00004753  00000-0  26833-3 0  9990
2 47446  97.4738   5.2648 0010723 345.5171  14.5752 15.13564032 42942
0 OBJECT AJ
1 47445U 21006AJ  21305.41605779  .00003002  00000-0  17172-3 0  9999
2 47445  97.4693   3.9279 0011944 356.8578   3.2577 15.13371736 42765
0 SPACEBEE-51
1 47444U 21006AH  21305.12952644  .00011537  00000-0  64465-3 0  9991
2 47444  97.4742   3.5032 0006071  13.8047 346.3350 15.13645396 42708
0 SPACEBEE-50
1 47443U 21006AG  21305.88486055  .00008021  00000-0  45425-3 0  9990
2 47443  97.4816   4.4691 0006226   9.5993 350.5356 15.13269063 42812
0 SPACEBEE-63
1 47442U 21006AF  21306.57078688  .00005262  00000-0  30801-3 0  9991
2 47442  97.4785   4.8713 0006523   8.5325 351.6016 15.12238317 42905
0 OBJECT AE
1 47441U 21006AE  21306.47870365  .00002975  00000-0  16934-3 0  9990
2 47441  97.4715   5.0878 0011833 350.5296 136.6748 15.13553263 42925
0 AII-CHARLIE
1 47440U 21006AD  21305.19641417  .00003989  00000-0  22572-3 0  9992
2 47440  97.4719   3.8349 0012022 356.6518   3.4631 15.13561399 42732
0 YUSAT-1
1 47439U 21006AC  21305.45302324  .00004410  00000-0  24882-3 0  9996
2 47439  97.4726   4.1444 0012036 352.6336   7.4717 15.13613774 42775
0 UVSQ-SAT
1 47438U 21006AB  21306.57645431  .00004674  00000-0  26384-3 0  9999
2 47438  97.4721   5.2375 0012072 348.4059  11.6892 15.13565539 42944
0 OBJECT AA
1 47437U 21006AA  21305.50983788  .00001070  00000-0  64065-4 0  9996
2 47437  97.4712   4.1042 0013098   5.1143 101.4300 15.13078329 42771
0 OBJECT Z
1 47436U 21006Z   21305.94033250  .00001061  00000-0  63370-4 0  9991
2 47436  97.4724   4.5719 0015007 358.8094   1.3099 15.13153997 42849
0 RIDESHARE ADAPTER
1 47435U 21006Y   21306.40870188  .00001644  00000-0  95192-4 0  9995
2 47435  97.4744   5.2794 0014487   3.1482 356.9838 15.13537193 42926
0 SPACEBEE-53
1 47434U 21006X   21306.81747942  .00010253  00000-0  57675-3 0  9999
2 47434  97.4832   5.4128 0005391   9.8189 350.3147 15.13441760 43912
0 SPACEBEE-60
1 47433U 21006W   21306.11075665  .00010744  00000-0  60902-3 0  9999
2 47433  97.4819   4.6548 0005584  11.0305 349.1047 15.13152625 43804
0 SPACEBEE-49
1 47432U 21006V   21305.44442723  .00009911  00000-0  56248-3 0  9998
2 47432  97.4822   4.0029 0005915  11.2359 348.9003 15.13131555 43701
0 SPACEBEE-61
1 47431U 21006U   21305.42845472  .00009378  00000-0  53083-3 0  9994
2 47431  97.4819   4.0115 0006144  11.4863 348.6507 15.13238387 43706
0 ASTROCAST-0101
1 47430U 21006T   21305.04542041  .00001602  00000-0  94160-4 0  9991
2 47430  97.4735   3.6756 0010673  14.7114 345.4426 15.13063445 42700
0 SPACEBEE-62
1 47429U 21006S   21305.40906833  .00004619  00000-0  25268-3 0  9995
2 47429  97.4745   4.5654 0013738 351.7188   8.3815 15.14675341 42797
0 SPACEBEE-59
1 47428U 21006R   21305.89997452  .00009373  00000-0  49209-3 0  9997
2 47428  97.4780   5.3694 0013355 353.5651   6.5408 15.15862179 43841
0 SPACEBEE-47
1 47427U 21006Q   21305.62500866  .00010253  00000-0  53675-3 0  9997
2 47427  97.4778   5.1184 0013405 353.5110   6.5947 15.15937277 42844
0 SPACEBEE-46
1 47426U 21006P   21306.14240365  .00011835  00000-0  61721-3 0  9997
2 47426  97.4779   5.6583 0013306 350.6799   9.4184 15.16035852 42926
0 SPACEBEE-52
1 47425U 21006N   21306.11105473  .00014292  00000-0  73640-3 0  9996
2 47425  97.4789   5.7126 0013209 350.2568   9.8406 15.16415923 43880
0 OBJECT M
1 47424U 21006M   21305.85469698  .00000887  00000-0  52210-4 0  9993
2 47424  97.4736   4.9448 0016289  14.9090 107.5553 15.14092937 42853
0 OBJECT L
1 47423U 21006L   21305.51097765  .00001074  00000-0  62327-4 0  9996
2 47423  97.4734   4.6443 0017895   9.8710 103.2170 15.14160514 42808
0 STARLINK-2208
1 47422U 21006K   21305.93304575  .00010949  00000-0  59520-3 0  9992
2 47422  97.4832   5.4407 0002791 112.9788 247.1739 15.14655331 42888
0 STARLINK-2207
1 47421U 21006J   21305.39380911  .00510965  00000-0  21173-1 0  9993
2 47421  97.4826   4.9194 0001974 185.4684 174.6531 15.21896214 42800
0 STARLINK-2206
1 47420U 21006H   21306.44374278  .00427859  00000-0  16813-1 0  9992
2 47420  97.4824   5.9673 0002487 207.6437 152.4668 15.23737004 42968
0 STARLINK-2205
1 47419U 21006G   21305.91817879  .00490673  00000-0  19543-1 0  9997
2 47419  97.4830   5.4478 0003538 207.4273 152.6777 15.22985588 42880
0 STARLINK-2204
1 47418U 21006F   21306.22229837  .00336893  00000-0  19664-1 0  9999
2 47418  97.4944   2.2741 0002468 259.0352 101.0600 15.10248238 42700
0 STARLINK-2203
1 47417U 21006E   21306.50839962  .00553850  00000-0  21194-1 0  9990
2 47417  97.4825   6.0363 0001873 205.5022 154.6123 15.24434340 42977
0 STARLINK-2202
1 47416U 21006D   21305.40688018  .00008993  00000-0  49094-3 0  9995
2 47416  97.4815   4.8916 0002788 109.8392 250.3141 15.14557928 42800
0 STARLINK-2201
1 47415U 21006C   21306.55307519  .00317859  00000-0  18386-1 0  9997
2 47415  97.4961   2.6113 0002193 194.7226 165.3941 15.10676357 42756
0 STARLINK-2200
1 47414U 21006B   21305.39152356  .00503939  00000-0  20924-1 0  9991
2 47414  97.4829   4.9253 0001922 184.3239 175.7980 15.21855357 42801
0 STARLINK-2199
1 47413U 21006A   21306.17848822  .00328093  00000-0  13351-1 0  9999
2 47413  97.4825   5.7229 0001549 206.3278 153.7880 15.23015885 42925
0 STARLINK-2135
1 47408U 21005BM  21306.06648105  .00000853  00000-0  76131-4 0  9991
2 47408  53.0557 323.2178 0001335  74.4519 285.6617 15.06401086 44631
0 STARLINK-2134
1 47407U 21005BL  21306.49406505  .00000111  00000-0  26361-4 0  9990
2 47407  53.0567 321.3137 0001383  76.5092 283.6051 15.06394101 44692
0 STARLINK-2133
1 47406U 21005BK  21306.48667954  .00000611  00000-0  59934-4 0  9992
2 47406  53.0546 321.3319 0001430  72.1681 287.9463 15.06399641 44080
0 STARLINK-2130
1 47405U 21005BJ  21306.39173779  .00004699  00000-0  33387-3 0  9991
2 47405  53.0474 351.8551 0001835  84.4870 275.6328 15.06433347 43647
0 STARLINK-2128
1 47404U 21005BH  21306.07754602 -.00000689  00000-0 -27368-4 0  9995
2 47404  53.0571 323.1806 0001392  72.7383 287.3759 15.06387681 44633
0 STARLINK-2127
1 47403U 21005BG  21306.08123698 -.00000884  00000-0 -40460-4 0  9995
2 47403  53.0571 323.1655 0001484  68.8201 291.2947 15.06392253 44635
0 STARLINK-2124
1 47402U 21005BF  21306.73731909  .00002513  00000-0  18747-3 0  9997
2 47402  53.0538 320.2203 0001275  70.2350 289.8777 15.06409104 44126
0 STARLINK-2123
1 47401U 21005BE  21306.05542466  .00003029  00000-0  22215-3 0  9997
2 47401  53.0553 323.2809 0001454  70.0396 290.0750 15.06399857 44638
0 STARLINK-2122
1 47400U 21005BD  21306.50140181  .00000924  00000-0  80950-4 0  9996
2 47400  53.0523 311.2680 0001297  78.0733 282.0401 15.06398143 44222
0 STARLINK-2121
1 47399U 21005BC  21305.78818345  .00005386  00000-0  38008-3 0  9999
2 47399  53.0558 334.4678 0001469  71.7388 288.3761 15.06414591 43838
0 STARLINK-2120
1 47398U 21005BB  21306.43876318 -.00000224  00000-0  38719-5 0  9993
2 47398  53.0541 321.5560 0001390  57.6555 302.4568 15.06406685 44680
0 STARLINK-2119
1 47397U 21005BA  21306.46548496  .00000253  00000-0  35899-4 0  9994
2 47397  53.0553 351.4478 0001473  84.2624 275.8533 15.06398684 43668
0 STARLINK-2118
1 47396U 21005AZ  21306.07016718  .00004159  00000-0  29785-3 0  9992
2 47396  53.0556 323.2074 0001430  79.9326 280.1825 15.06407845 44633
0 STARLINK-2117
1 47395U 21005AY  21305.76146890  .00001553  00000-0  12315-3 0  9997
2 47395  53.0560 314.5891 0001721  70.6459 289.4715 15.06405718 44115
0 STARLINK-2115
1 47394U 21005AX  21306.72026257 -.00000676  00000-0 -26519-4 0  9996
2 47394  53.0535 315.2998 0001408  69.2318 290.8822 15.06384541 44195
0 STARLINK-2114
1 47393U 21005AW  21306.30558361  .00001899  00000-0  14631-3 0  9992
2 47393  53.0480 297.1687 0001470  92.7287 267.3870 15.06403704 44400
0 STARLINK-2113
1 47392U 21005AV  21305.78266600  .00000676  00000-0  64256-4 0  9995
2 47392  53.0527 324.4909 0001326  76.8876 283.2260 15.06407320 43978
0 STARLINK-2112
1 47391U 21005AU  21305.78170685  .00005234  00000-0  36982-3 0  9990
2 47391  53.0541 324.4946 0001894  73.1224 286.9973 15.06419631 43970
0 STARLINK-2111
1 47390U 21005AT  21305.44081286 -.00000420  00000-0 -93199-5 0  9999
2 47390  53.0572 356.0264 0001203  87.4376 272.6751 15.06393591 43508
0 STARLINK-2110
1 47389U 21005AS  21306.37519156  .00001410  00000-0  11353-3 0  9990
2 47389  53.0537 331.8296 0001384  77.2711 282.8433 15.06395350 43924
0 STARLINK-2109
1 47388U 21005AR  21305.59930361  .00000411  00000-0  46475-4 0  9991
2 47388  53.0567 355.3254 0001191  92.4200 267.6926 15.06394099 44488
